NORAD_CAT_ID,OBJECT_NAME,OBJECT_TYPE,EPOCH,MEAN_MOTION,ECCENTRICITY,INCLINATION,RA_OF_ASC_NODE,ARG_OF_PERICENTER,MEAN_ANOMALY,BSTAR,MEAN_MOTION_DOT,MEAN_MOTION_DDOT,TLE_LINE0,TLE_LINE1,TLE_LINE2,SEMIMAJOR_AXIS,PERIOD,APOGEE,PERIGEE,DECAYED
52289.0,STARLINK-3751,PAYLOAD,2023-07-27 22:26:11,15.08826332,0.0001124,53.2166,69.6689,94.2762,265.8358,-0.00032394,-5.438e-05,0.0,0 STARLINK-3751,1 52289U 22041AE  23208.93485066 -.00005438  00000-0 -32394-3 0  9997,2 52289  53.2166  69.6689 0001124  94.2762 265.8358 15.08826332 70218,6917.922,95.438,540.565,539.01,0.0
52289.0,STARLINK-3751,PAYLOAD,2023-07-28 22:16:58,15.08838471,0.0001114,53.2165,65.2088,93.5341,266.5779,0.0002337,3.433e-05,0.0,0 STARLINK-3751,1 52289U 22041AE  23209.92845762  .00003433  00000-0  23370-3 0  9995,2 52289  53.2165  65.2088 0001114  93.5341 266.5779 15.08838471 71589,6917.885,95.438,540.521,538.979,0.0
52289.0,STARLINK-3751,PAYLOAD,2023-07-29 23:43:08,15.08857758,0.0001154,53.2163,60.4505,93.9552,266.1572,0.00045368,6.943e-05,0.0,0 STARLINK-3751,1 52289U 22041AE  23210.98829217  .00006943  00000-0  45368-3 0  9990,2 52289  53.2163  60.4505 0001154  93.9552 266.1572 15.08857758 71744,6917.826,95.436,540.489,538.893,0.0
52289.0,STARLINK-3751,PAYLOAD,2023-07-30 18:47:46,15.08836618,0.0001491,53.2163,56.8783,113.9955,246.1194,0.00042204,6.435e-05,0.0,0 STARLINK-3751,1 52289U 22041AE  23211.78317742  .00006435  00000-0  42204-3 0  9996,2 52289  53.2163  56.8783 0001491 113.9955 246.1194 15.08836618 71868,6917.891,95.438,540.787,538.724,0.0
52289.0,STARLINK-3751,PAYLOAD,2023-07-31 23:24:42,15.08845288,0.0001164,53.2162,51.5289,81.4724,278.64,0.00016025,2.264e-05,0.0,0 STARLINK-3751,1 52289U 22041AE  23212.97549634  .00002264  00000-0  16025-3 0  9993,2 52289  53.2162  51.5289 0001164  81.4724 278.6400 15.08845288 72044,6917.864,95.437,540.534,538.924,0.0
52289.0,STARLINK-3751,PAYLOAD,2023-08-01 18:29:20,15.08840474,0.0001119,53.2161,47.9606,78.6775,281.4343,0.00010269,1.347e-05,0.0,0 STARLINK-3751,1 52289U 22041AE  23213.77037953  .00001347  00000-0  10269-3 0  9993,2 52289  53.2161  47.9606 0001119  78.6775 281.4343 15.08840474 72162,6917.879,95.438,540.518,538.97,0.0
52289.0,STARLINK-3751,PAYLOAD,2023-08-02 21:30:53,15.0884513,0.0001143,53.2168,42.9063,91.5537,268.5586,0.00014147,1.965e-05,0.0,0 STARLINK-3751,1 52289U 22041AE  23214.89645748  .00001965  00000-0  14147-3 0  9999,2 52289  53.2168  42.9063 0001143  91.5537 268.5586 15.08845130 72336,6917.865,95.437,540.52,538.939,0.0
52289.0,STARLINK-3751,PAYLOAD,2023-08-03 16:35:31,15.08842068,0.0001262,53.2177,39.3386,107.6879,252.4251,0.00010313,1.354e-05,0.0,0 STARLINK-3751,1 52289U 22041AE  23215.69133904  .00001354  00000-0  10313-3 0  9997,2 52289  53.2177  39.3386 0001262 107.6879 252.4251 15.08842068 72455,6917.874,95.437,540.612,538.866,0.0
52289.0,STARLINK-3751,PAYLOAD,2023-08-04 18:01:42,15.08839994,0.0001231,53.2171,34.5813,70.6566,289.4559,3.0942e-05,2.05e-06,0.0,0 STARLINK-3751,1 52289U 22041AE  23216.75118325  .00000205  00000-0  30942-4 0  9990,2 52289  53.2171  34.5813 0001231  70.6566 289.4559 15.08839994 72612,6917.88,95.438,540.597,538.894,0.0
52289.0,STARLINK-3751,PAYLOAD,2023-08-05 17:52:28,15.08856496,0.0001365,53.2182,30.1176,65.0717,295.0417,0.00025028,3.699e-05,0.0,0 STARLINK-3751,1 52289U 22041AE  23217.74477445  .00003699  00000-0  25028-3 0  9999,2 52289  53.2182  30.1176 0001365  65.0717 295.0417 15.08856496 72760,6917.83,95.437,540.639,538.751,0.0
52289.0,STARLINK-3751,PAYLOAD,2023-08-06 11:21:44,15.08821083,9.7e-05,53.2163,26.8477,112.5417,247.5678,-0.0003205,-5.382e-05,0.0,0 STARLINK-3751,1 52289U 22041AE  23218.47342688 -.00005382  00000-0 -32050-3 0  9996,2 52289  53.2163  26.8477 0000970 112.5417 247.5678 15.08821083 72878,6917.938,95.439,540.474,539.132,0.0
52289.0,STARLINK-3751,PAYLOAD,2023-08-07 11:12:31,15.08832622,9.99e-05,53.217,22.388,114.691,245.4186,0.00054379,8.375e-05,0.0,0 STARLINK-3751,1 52289U 22041AE  23219.46703463  .00008375  00000-0  54379-3 0  9999,2 52289  53.2170  22.3880 0000999 114.6910 245.4186 15.08832622 73027,6917.903,95.438,540.459,539.077,0.0
52289.0,STARLINK-3751,PAYLOAD,2023-08-07 19:09:27,15.08853675,9.42e-05,53.2171,20.901,102.3356,257.7741,0.0013591,0.00021416,0.0,0 STARLINK-3751,1 52289U 22041AE  23219.79823450  .00021416  00000-0  13591-2 0  9995,2 52289  53.2171  20.9010 0000942 102.3356 257.7741 15.08853675 73072,6917.839,95.437,540.355,539.052,0.0
52289.0,STARLINK-3751,PAYLOAD,2023-08-08 11:03:18,15.08855961,9.84e-05,53.2172,17.9276,101.2434,258.8668,0.00070538,0.00010961,0.0,0 STARLINK-3751,1 52289U 22041AE  23220.46063184  .00010961  00000-0  70538-3 0  9999,2 52289  53.2172  17.9276 0000984 101.2434 258.8668 15.08855961 73175,6917.832,95.437,540.377,539.016,0.0
52289.0,STARLINK-3751,PAYLOAD,2023-08-09 02:57:09,15.08850054,0.0001156,53.2174,14.9538,90.5553,269.5572,0.00030449,4.563e-05,0.0,0 STARLINK-3751,1 52289U 22041AE  23221.12302948  .00004563  00000-0  30449-3 0  9995,2 52289  53.2174  14.9538 0001156  90.5553 269.5572 15.08850054 73271,6917.85,95.437,540.514,538.915,0.0
52289.0,STARLINK-3751,PAYLOAD,2023-08-09 17:15:37,15.08847064,9.37e-05,53.2174,12.2791,110.0539,250.0554,0.00011026,1.468e-05,0.0,0 STARLINK-3751,1 52289U 22041AE  23221.71918748  .00001468  00000-0  11026-3 0  9992,2 52289  53.2174  12.2791 0000937 110.0539 250.0554 15.08847064 73363,6917.859,95.437,540.372,539.076,0.0
52289.0,STARLINK-3751,PAYLOAD,2023-08-10 18:41:47,15.08848839,8.84e-05,53.2176,7.5218,110.0689,250.0398,0.00016392,2.323e-05,0.0,0 STARLINK-3751,1 52289U 22041AE  23222.77902533  .00002323  00000-0  16392-3 0  9996,2 52289  53.2176   7.5218 0000884 110.0689 250.0398 15.08848839 73528,6917.853,95.437,540.33,539.107,0.0
52289.0,STARLINK-3751,PAYLOAD,2023-08-11 02:38:43,15.08838038,0.0001085,53.2178,6.0299,90.269,269.8427,6.1945e-06,-1.89e-06,0.0,0 STARLINK-3751,1 52289U 22041AE  23223.11022864 -.00000189  00000-0  61945-5 0  9990,2 52289  53.2178   6.0299 0001085  90.2690 269.8427 15.08838038 73574,6917.886,95.438,540.502,539.001,0.0
52289.0,STARLINK-3751,PAYLOAD,2023-08-11 18:32:34,15.08850049,8.47e-05,53.2172,3.0569,89.1928,270.9161,8.0017e-05,9.86e-06,0.0,0 STARLINK-3751,1 52289U 22041AE  23223.77262477  .00000986  00000-0  80017-4 0  9992,2 52289  53.2172   3.0569 0000847  89.1928 270.9161 15.08850049 73676,6917.85,95.437,540.301,539.129,0.0
52289.0,STARLINK-3751,PAYLOAD,2023-08-12 08:51:03,15.08837786,9.68e-05,53.2175,0.3816,95.3468,264.7635,5.0479e-05,5.16e-06,0.0,0 STARLINK-3751,1 52289U 22041AE  23224.36879214  .00000516  00000-0  50479-4 0  9999,2 52289  53.2175   0.3816 0000968  95.3468 264.7635 15.08837786 73766,6917.887,95.438,540.422,539.083,0.0
52289.0,STARLINK-3751,PAYLOAD,2023-08-13 15:03:23,15.08839609,0.000118,53.2178,354.7345,80.5479,279.5647,0.00010517,1.386e-05,0.0,0 STARLINK-3751,1 52289U 22041AE  23225.62735443  .00001386  00000-0  10517-3 0  9998,2 52289  53.2178 354.7345 0001180  80.5479 279.5647 15.08839609 73951,6917.882,95.438,540.563,538.93,0.0
52289.0,STARLINK-3751,PAYLOAD,2023-08-14 19:40:19,15.08849403,0.000125,53.2177,349.3822,82.0757,278.0377,0.00017774,2.543e-05,0.0,0 STARLINK-3751,1 52289U 22041AE  23226.81967009  .00002543  00000-0  17774-3 0  9993,2 52289  53.2177 349.3822 0001250  82.0757 278.0377 15.08849403 74132,6917.852,95.437,540.581,538.852,0.0
52289.0,STARLINK-3751,PAYLOAD,2023-08-15 17:55:43,15.08843096,0.0001339,53.2161,345.2158,92.8827,267.2319,7.647e-05,9.29e-06,0.0,0 STARLINK-3751,1 52289U 22041AE  23227.74703229  .00000929  00000-0  76470-4 0  9993,2 52289  53.2161 345.2158 0001339  92.8827 267.2319 15.08843096 74270,6917.871,95.437,540.662,538.81,0.0
52289.0,STARLINK-3751,PAYLOAD,2023-08-17 00:08:03,15.08840549,8.52e-05,53.2174,339.5679,104.4458,255.6629,0.00011687,1.573e-05,0.0,0 STARLINK-3751,1 52289U 22041AE  23229.00559211  .00001573  00000-0  11687-3 0  9998,2 52289  53.2174 339.5679 0000852 104.4458 255.6629 15.08840549 74463,6917.879,95.438,540.333,539.154,0.0
52289.0,STARLINK-3751,PAYLOAD,2023-08-17 23:58:50,15.08836659,0.0001385,53.2186,335.1087,84.0747,276.0403,7.3741e-05,8.86e-06,0.0,0 STARLINK-3751,1 52289U 22041AE  23229.99919510  .00000886  00000-0  73741-4 0  9994,2 52289  53.2186 335.1087 0001385  84.0747 276.0403 15.08836659 74618,6917.891,95.438,540.714,538.797,0.0
52289.0,STARLINK-3751,PAYLOAD,2023-08-19 07:46:33,15.08837981,9.67e-05,53.2183,329.1615,88.1092,272.0011,0.00010081,1.317e-05,0.0,0 STARLINK-3751,1 52289U 22041AE  23231.32399851  .00001317  00000-0  10081-3 0  9991,2 52289  53.2183 329.1615 0000967  88.1092 272.0011 15.08837981 74810,6917.887,95.438,540.421,539.083,0.0
52289.0,STARLINK-3751,PAYLOAD,2023-08-19 12:32:42,15.08846804,0.0001102,53.2189,328.2696,90.1853,269.9266,8.7025e-05,1.098e-05,0.0,0 STARLINK-3751,1 52289U 22041AE  23231.52271360  .00001098  00000-0  87025-4 0  9996,2 52289  53.2189 328.2696 0001102  90.1853 269.9266 15.08846804 74849,6917.86,95.437,540.487,538.962,0.0
52289.0,STARLINK-3751,PAYLOAD,2023-08-20 12:23:30,15.08839172,0.0001101,53.2194,323.8096,80.006,280.1056,8.3289e-05,1.038e-05,0.0,0 STARLINK-3751,1 52289U 22041AE  23232.51632005  .00001038  00000-0  83289-4 0  9995,2 52289  53.2194 323.8096 0001101  80.0060 280.1056 15.08839172 74995,6917.883,95.438,540.51,538.986,0.0
52289.0,STARLINK-3751,PAYLOAD,2023-08-22 12:05:04,15.08840892,0.0001241,53.2176,314.8892,78.4426,281.6706,8.1391e-05,1.008e-05,0.0,0 STARLINK-3751,1 52289U 22041AE  23234.50351953  .00001008  00000-0  81391-4 0  9995,2 52289  53.2176 314.8892 0001241  78.4426 281.6706 15.08840892 75294,6917.878,95.437,540.601,538.884,0.0
52289.0,STARLINK-3751,PAYLOAD,2023-08-23 08:45:05,15.08836721,0.0001238,53.2173,311.0235,83.6665,276.4469,1.1827e-05,-1e-06,0.0,0 STARLINK-3751,1 52289U 22041AE  23235.36464453 -.00000100  00000-0  11827-4 0  9990,2 52289  53.2173 311.0235 0001238  83.6665 276.4469 15.08836721 75429,6917.89,95.438,540.612,538.899,0.0
